DELTA 2 R/B(1)          
1 20453U 90008B   26048.78661535  .00053891  00000+0  69317-3 0  9996
2 20453  35.6047 305.1881 0089848  72.7720 288.2826 15.53171708923030
COSMOS 2058             
1 20465U 90010A   26048.51924213  .00004148  00000+0  24555-3 0  9994
2 20465  82.4654  67.2989 0011096  51.8196 308.4031 15.11130411939194
SL-14 R/B               
1 20466U 90010B   26048.72260327  .00000408  00000+0  46526-4 0  9995
2 20466  82.5012 286.1469 0020083  10.2021 349.9597 14.83551243925528
SL-14 R/B               
1 20511U 90018B   26048.58614836  .00000409  00000+0  48320-4 0  9991
2 20511  82.5179 241.8835 0016920 153.6921 206.5157 14.82122056919601
HST                     
1 20580U 90037B   26048.64771450  .00006759  00000+0  22432-3 0  9990
2 20580  28.4680 176.6860 0001123 244.7875 115.2604 15.29148830770243
SL-16 R/B               
1 20625U 90046B   26048.26728872  .00000310  00000+0  18446-3 0  9995
2 20625  71.0015 340.8028 0015277 328.1534  31.8663 14.15012001845508
COSMOS 2084             
1 20663U 90055A   26048.39815919  .00003046  00000+0  22375-3 0  9995
2 20663  62.7899  44.7769 0020183 185.5143 174.5739 15.05514009933267
SL-6 R/B(2)             
1 20666U 90055D   26048.15376800  .00002870  00000+0  22303-3 0  9998
2 20666  62.7846 323.6811 0021679 341.6533  18.3782 15.03491534935101
SL-8 R/B                
1 20775U 90078B   26048.68051765  .00014464  00000+0  42441-3 0  9999
2 20775  82.9005 269.2969 0366115  81.0667 283.1801 14.88378602806329
SL-8 R/B                
1 21088U 91006B   26048.73308603  .00000019  00000+0  33039-5 0  9997
2 21088  82.9447 184.8815 0023775  91.5762  25.0749 13.77492328761326
OKEAN-3                 
1 21397U 91039A   26048.79578710  .00004243  00000+0  29920-3 0  9995
2 21397  82.5202 356.1097 0015761  42.7213 317.5236 15.04647919862046
COSMOS 2151             
1 21422U 91042A   26048.87176441  .00001628  00000+0  12846-3 0  9995
2 21422  82.4949 102.7956 0013868 123.1920 237.0636 15.00026611860220
